[{"OBJECT_NAME":"STARLINK-5233","OBJECT_ID":"2022-141D","EPOCH":"2026-03-09T22:04:34.635648","MEAN_MOTION":15.08835916,"ECCENTRICITY":0.00013705,"INCLINATION":53.2188,"RA_OF_ASC_NODE":328.0572,"ARG_OF_PERICENTER":84.0744,"MEAN_ANOMALY":276.0404,"EPHEMERIS_TYPE":0,"CLASSIFICATION_TYPE":"U","NORAD_CAT_ID":54160,"ELEMENT_SET_NO":999,"REV_AT_EPOCH":18638,"BSTAR":2.1866643e-5,"MEAN_MOTION_DOT":6.0e-7,"MEAN_MOTION_DDOT":0},{"OBJECT_NAME":"NOAA 17 DEB","OBJECT_ID":"2002-032DT","EPOCH":"2026-03-08T22:47:54.624192","MEAN_MOTION":15.08678856,"ECCENTRICITY":0.0018728,"INCLINATION":98.77,"RA_OF_ASC_NODE":121.3607,"ARG_OF_PERICENTER":298.7191,"MEAN_ANOMALY":61.2152,"EPHEMERIS_TYPE":0,"CLASSIFICATION_TYPE":"U","NORAD_CAT_ID":49489,"ELEMENT_SET_NO":999,"REV_AT_EPOCH":24229,"BSTAR":0.0068247859,"MEAN_MOTION_DOT":0.00108865,"MEAN_MOTION_DDOT":0}]
